[{"OBJECT_NAME":"MICE-1","OBJECT_ID":"2025-276U","EPOCH":"2026-03-09T18:17:39.683040","MEAN_MOTION":15.18401277,"ECCENTRICITY":0.00050387,"INCLINATION":97.4336,"RA_OF_ASC_NODE":144.0716,"ARG_OF_PERICENTER":357.2456,"MEAN_ANOMALY":2.875,"EPHEMERIS_TYPE":0,"CLASSIFICATION_TYPE":"U","NORAD_CAT_ID":66684,"ELEMENT_SET_NO":999,"REV_AT_EPOCH":1532,"BSTAR":0.00026807405,"MEAN_MOTION_DOT":5.448e-5,"MEAN_MOTION_DDOT":0},{"OBJECT_NAME":"SL-8 DEB","OBJECT_ID":"1971-114D","EPOCH":"2026-03-09T21:09:22.343904","MEAN_MOTION":15.17425388,"ECCENTRICITY":0.00068282,"INCLINATION":73.9839,"RA_OF_ASC_NODE":358.0676,"ARG_OF_PERICENTER":210.5814,"MEAN_ANOMALY":149.4984,"EPHEMERIS_TYPE":0,"CLASSIFICATION_TYPE":"U","NORAD_CAT_ID":5858,"ELEMENT_SET_NO":999,"REV_AT_EPOCH":89033,"BSTAR":0.0013634837,"MEAN_MOTION_DOT":0.00027356,"MEAN_MOTION_DDOT":0}]
